{
    "links": {
        "self": "http://www.neowsapp.com/rest/v1/neo/3830865?api_key=iIulBulltgU6a56xZRHN4H3l9WmuAYTsLGpBGhQ2"
    },
    "id": "3830865",
    "neo_reference_id": "3830865",
    "name": "(2018 SP1)",
    "designation": "2018 SP1",
    "nasa_jpl_url": "http://ssd.jpl.nasa.gov/sbdb.cgi?sstr=3830865",
    "absolute_magnitude_h": 23.1,
    "estimated_diameter": {
        "kilometers": {
            "estimated_diameter_min": 0.063760979,
            "estimated_diameter_max": 0.1425738833
        },
        "meters": {
            "estimated_diameter_min": 63.7609789875,
            "estimated_diameter_max": 142.5738833281
        },
        "miles": {
            "estimated_diameter_min": 0.0396192233,
            "estimated_diameter_max": 0.0885912765
        },
        "feet": {
            "estimated_diameter_min": 209.1895703015,
            "estimated_diameter_max": 467.7620993781
        }
    },
    "is_potentially_hazardous_asteroid": false,
    "close_approach_data": [
        {
            "close_approach_date": "1951-03-15",
            "close_approach_date_full": "1951-Mar-15 07:17",
            "epoch_date_close_approach": -593282580000,
            "relative_velocity": {
                "kilometers_per_second": "19.7405643366",
                "kilometers_per_hour": "71066.0316118968",
                "miles_per_hour": "44157.6683646255"
            },
            "miss_distance": {
                "astronomical": "0.1212594833",
                "lunar": "47.1699390037",
                "kilometers": "18140160.418980571",
                "miles": "11271773.0052950398"
            },
            "orbiting_body": "Earth"
        },
        {
            "close_approach_date": "2018-10-04",
            "close_approach_date_full": "2018-Oct-04 23:57",
            "epoch_date_close_approach": 1538697420000,
            "relative_velocity": {
                "kilometers_per_second": "16.7534064319",
                "kilometers_per_hour": "60312.263154953",
                "miles_per_hour": "37475.6948475873"
            },
            "miss_distance": {
                "astronomical": "0.0390843168",
                "lunar": "15.2037992352",
                "kilometers": "5846930.543685216",
                "miles": "3633114.1701033408"
            },
            "orbiting_body": "Earth"
        },
        {
            "close_approach_date": "2018-11-03",
            "close_approach_date_full": "2018-Nov-03 09:07",
            "epoch_date_close_approach": 1541236020000,
            "relative_velocity": {
                "kilometers_per_second": "16.5407712876",
                "kilometers_per_hour": "59546.7766353413",
                "miles_per_hour": "37000.0512932208"
            },
            "miss_distance": {
                "astronomical": "0.1185463733",
                "lunar": "46.1145392137",
                "kilometers": "17734284.941904871",
                "miles": "11019573.6784783798"
            },
            "orbiting_body": "Venus"
        }
    ],
    "orbital_data": {
        "orbit_id": "6",
        "orbit_determination_date": "2018-10-19 07:04:22",
        "first_observation_date": "2018-09-19",
        "last_observation_date": "2018-10-04",
        "data_arc_in_days": 15,
        "observations_used": 56,
        "orbit_uncertainty": "8",
        "minimum_orbit_intersection": ".00185317",
        "jupiter_tisserand_invariant": "3.884",
        "epoch_osculation": "2458383.5",
        "eccentricity": ".5975545334692582",
        "semi_major_axis": "1.762438370241248",
        "inclination": "3.71796059507619",
        "ascending_node_longitude": "165.0230015939807",
        "orbital_period": "854.6126871538196",
        "perihelion_distance": ".7092853321434192",
        "perihelion_argument": "285.5573391802173",
        "aphelion_distance": "2.815591408339077",
        "perihelion_time": "2458444.529243229317",
        "mean_anomaly": "334.2918307991375",
        "mean_motion": ".4212434538023708",
        "equinox": "J2000",
        "orbit_class": {
            "orbit_class_type": "APO",
            "orbit_class_description": "Near-Earth asteroid orbits which cross the Earth’s orbit similar to that of 1862 Apollo",
            "orbit_class_range": "a (semi-major axis) > 1.0 AU; q (perihelion) < 1.017 AU"
        }
    },
    "is_sentry_object": false
}